satname,norad_id,inclination_deg,eccentricity,mean_motion_rev_per_day,perigee_km,apogee_km,l1,l2
STARLINK-1300,45374,53.0544,0.0001934,15.06381474,545.9289646495772,548.6077114343316,1 45374U 20019Q   25302.52791170 -.00000445  00000+0 -10944-4 0  9995,2 45374  53.0544  35.4220 0001934  90.4193 269.7017 15.06381474309963
STARLINK-1302,45375,53.0545,0.0001288,15.06414173,546.2761407756707,548.0600993746011,1 45375U 20019R   25302.54263049  .00005421  00000+0  38239-3 0  9990,2 45375  53.0545  35.3608 0001288  81.6563 278.4572 15.06414173309965
STARLINK-1304,45376,53.0544,0.0001393,15.06408181,546.2217869036467,548.1511820264195,1 45376U 20019S   25302.49471586  .00005300  00000+0  37434-3 0  9994,2 45376  53.0544  35.5731 0001393  95.1266 264.9882 15.06408181309956
STARLINK-1305,45377,53.0547,0.0001233,15.31219182,471.329020402949,473.0183070126204,1 45377U 20019T   25302.46891804  .00014557  00000+0  48709-3 0  9992,2 45377  53.0547  33.7436 0001233  80.8350 279.2789 15.31219182309987
STARLINK-1319,45379,53.0548,0.0001599,15.16096773,516.5482220456024,518.7534950027584,1 45379U 20019V   25302.58336806  .02080538  00000+0  97265-1 0  9996,2 45379  53.0548  35.0105 0001599 100.8056   9.1932 15.16096773  5793
STARLINK-1266,45383,53.0552,0.0001309,15.06427886,546.2195757441859,548.0326096218505,1 45383U 20019Z   25302.51499207  .00014844  00000+0  10126-2 0  9996,2 45383  53.0552  15.4867 0001309  90.1611 269.9528 15.06427886310234
STARLINK-1267,45384,53.0554,0.0001427,15.06422252,546.1551220953379,548.1315971099693,1 45384U 20019AA  25302.50032487  .00011610  00000+0  79657-3 0  9992,2 45384  53.0554  16.2078 0001427  88.2109 271.9044 15.06422252310228
STARLINK-1272,45386,53.055,0.0001558,15.33183667,465.25446153532266,467.3871945945475,1 45386U 20019AC  25302.58336806  .00087677  00000+0  26766-2 0  9992,2 45386  53.0550  13.4055 0001558  44.8551 198.5314 15.33183667  5795
STARLINK-1274,45387,53.0405,0.0003334,15.2876843,477.20648080736555,481.779148367732,1 45387U 20019AD  25302.43188117  .00033152  00000+0  11769-2 0  9993,2 45387  53.0405   1.4398 0003334 232.9042 127.1652 15.28768430310424
STARLINK-1280,45388,53.0539,0.0001662,15.3871487,448.77369466463097,451.0433369940929,1 45388U 20019AE  25302.58336806  .00085363  00000+0  21838-2 0  9999,2 45388  53.0539  32.9798 0001662  40.3001 111.7729 15.38714870  5799
STARLINK-1283,45389,53.0556,0.0002725,15.29871838,474.32727165200504,478.0628826340471,1 45389U 20019AF  25302.50525242  .00048454  00000+0  16539-2 0  9998,2 45389  53.0556  12.3136 0002725  22.8171 337.2948 15.29871838310280
STARLINK-1284,45390,53.0553,0.0001345,15.06424068,546.2063445070316,548.0692434266084,1 45390U 20019AG  25302.51867229  .00013178  00000+0  90131-3 0  9991,2 45390  53.0553  15.4704 0001345  94.2146 265.8997 15.06424068310235
STARLINK-1292,45394,53.0441,0.0008251,15.93233545,287.7364208413219,298.74552877535007,1 45394U 20019AL  25302.58336806  .00424434  81380-4  11765-2 0  9995,2 45394  53.0441 326.5197 0008251  14.4816  12.8194 15.93233545  5951
STARLINK-1297,45395,53.0555,0.0001429,15.06423392,546.1502436909486,548.1294878191802,1 45395U 20019AM  25302.48918715  .00010663  00000+0  73318-3 0  9993,2 45395  53.0555  15.6011 0001429  91.4415 268.6738 15.06423392309417
STARLINK-1307,45397,53.0558,0.0001438,15.06434925,546.1086701808454,548.1003696419721,1 45397U 20019AP  25302.48182340  .00014217  00000+0  97051-3 0  9991,2 45397  53.0558  15.6316 0001438  88.4407 271.6747 15.06434925310057
STARLINK-1312,45398,53.0414,0.0005802,15.97844187,276.53782937812866,284.26439700467563,1 45398U 20019AQ  25302.58336806  .00594963  16308-3  12850-2 0  9997,2 45398  53.0414 325.7755 0005802  16.6568 307.3822 15.97844187  5991
STARLINK-1255,45399,53.0503,0.0001358,15.29889804,475.210604242684,477.0722262602667,1 45399U 20019AR  25302.44840461  .00014950  00000+0  52075-3 0  9995,2 45399  53.0503   3.6693 0001358  51.3265 308.7855 15.29889804310200
STARLINK-1260,45404,53.0554,0.0001258,15.06415691,546.292264901791,548.0346704994645,1 45404U 20019AW  25302.48273029  .00001594  00000+0  12580-3 0  9993,2 45404  53.0554   5.6280 0001258  94.3276 265.7857 15.06415691310089
STARLINK-1263,45405,53.0554,0.0001356,15.06424954,546.1960116842101,548.07414547192,1 45405U 20019AX  25302.46799920  .00013746  00000+0  93926-3 0  9990,2 45405  53.0554   5.6969 0001356  82.4406 277.6736 15.06424954310086
STARLINK-1265,45406,53.0555,0.0001215,15.06419334,546.3108799963757,547.9937252969203,1 45406U 20019AY  25302.47536751  .00014447  00000+0  98625-3 0  9993,2 45406  53.0555   5.6640 0001215  90.1055 270.0073 15.06419334310081
STARLINK-1278,45408,53.0558,0.0001086,15.32667893,467.1128001721918,468.5997499115301,1 45408U 20019BA  25302.52789280  .00080102  00000+0  24888-2 0  9998,2 45408  53.0558  33.5992 0001086  11.6223 348.4802 15.32667893309708
STARLINK-1296,45412,53.0547,0.000141,15.06411962,546.1984273963344,548.151365351111,1 45412U 20019BE  25302.41271318  .00006434  00000+0  45027-3 0  9994,2 45412  53.0547   5.9393 0001410  89.6054 270.5096 15.06411962310074
STARLINK-1298,45413,53.0491,0.0007997,15.52000023,405.45805375393684,416.3164191176911,1 45413U 20019BF  25302.51391520  .00116197  00000+0  18761-2 0  9996,2 45413  53.0491 342.2637 0007997 302.7506  57.2731 15.52000023310516
STARLINK-1309,45414,53.0551,0.000138,15.06420988,546.1915442637192,548.1029227121608,1 45414U 20019BG  25302.49379932  .00012895  00000+0  88247-3 0  9994,2 45414  53.0551   5.5815 0001380  90.3089 269.8058 15.06420988310076
STARLINK-1316,45415,53.0552,0.0001479,15.06416008,546.1382443628381,548.1867479538023,1 45415U 20019BH  25302.45325218  .00005559  00000+0  39163-3 0  9991,2 45415  53.0552   5.7597 0001479  94.6734 265.4424 15.06416008310101
STARLINK-1318,45416,53.0523,0.0004953,15.60020175,384.2476791869394,390.94981701900997,1 45416U 20019BJ  25302.38203495  .00059087  00000+0  71791-3 0  9994,2 45416  53.0523 334.5426 0004953  29.0783 331.0504 15.60020175310521
STARLINK-1286,45417,53.0544,0.0001445,15.30285011,473.97098094968624,475.95152634498936,1 45417U 20019BK  25302.58336806  .01467174  00000+0  45250-1 0  9990,2 45417  53.0544  33.8558 0001445  98.1443   2.8819 15.30285011  5547
STARLINK-1308,45419,53.0541,0.0001216,15.06411833,546.3331737602639,548.0174097096142,1 45419U 20019BM  25302.55368830  .00003453  00000+0  25054-3 0  9998,2 45419  53.0541  35.3102 0001216  87.5540 272.5588 15.06411833309704
STARLINK-1329,45531,53.0548,0.0001424,15.06418841,546.1676521768777,548.1399750005885,1 45531U 20025A   25302.38966709  .00008016  00000+0  55611-3 0  9992,2 45531  53.0548 336.0484 0001424  81.9661 278.1490 15.06418841305305
STARLINK-1338,45532,53.0556,0.0001366,15.06414027,546.2225707966018,548.1145642776528,1 45532U 20025B   25302.40072446  .00003407  00000+0  24744-3 0  9994,2 45532  53.0556 335.9960 0001366  90.3663 269.7482 15.06414027305302
STARLINK-1350,45535,53.0737,0.0001664,15.32176979,468.1790979227544,470.45793111798594,1 45535U 20025E   25302.26732258  .00014950  00000+0  48531-3 0  9990,2 45535  53.0737 288.5754 0001664  59.7213 300.3952 15.32176979305989
STARLINK-1362,45538,53.0564,0.000142,15.06423655,546.1556705184403,548.122448919401,1 45538U 20025H   25302.49927259  .00009275  00000+0  64036-3 0  9997,2 45538  53.0564 335.2738 0001420  83.4483 276.6667 15.06423655305328
STARLINK-1368,45540,53.0552,0.0001444,15.06418832,546.1538291743973,548.1538531693277,1 45540U 20025K   25302.50393022  .00007265  00000+0  50589-3 0  9992,2 45540  53.0552 335.5340 0001444  91.1738 268.9416 15.06418832305311
STARLINK-1371,45542,53.0552,0.0001328,15.06403845,546.2800888685915,548.1194583156584,1 45542U 20025M   25302.47445269  .00000454  00000+0  49368-4 0  9998,2 45542  53.0552 335.6659 0001328  88.8904 271.2237 15.06403845305312
STARLINK-1372,45543,53.056,0.0001618,15.06414166,546.0476271568914,548.2886559006902,1 45543U 20025N   25302.51129946  .00003172  00000+0  23167-3 0  9993,2 45543  53.0560 335.4993 0001618  98.0739 262.0433 15.06414166304416
STARLINK-1373,45544,53.056,0.0001449,15.06416483,546.1575646918491,548.16451606395,1 45544U 20025P   25302.39703534  .00001374  00000+0  11108-3 0  9995,2 45544  53.0560 336.0136 0001449  85.3898 274.7256 15.06416483305306
STARLINK-1294,45551,53.0495,0.0008243,15.5898459,385.01512965926486,396.17406056696836,1 45551U 20025W   25302.18792909  .00082953  00000+0  10416-2 0  9996,2 45551  53.0495 270.9577 0008243  47.4298 312.7408 15.58984590306206
STARLINK-1325,45554,53.0552,0.0001585,15.59894973,386.8883426958455,389.03319568867846,1 45554U 20025Z   25302.58336806  .00252025  00000+0  29849-2 0  9992,2 45554  53.0552 261.9901 0001585 111.6282 119.5436 15.59894973  5917
STARLINK-1327,45555,53.0557,0.0001574,15.06406585,546.1013292488378,548.2814226215824,1 45555U 20025AA  25302.30305372  .00004694  00000+0  33372-3 0  9991,2 45555  53.0557 316.4335 0001574  83.8772 276.2396 15.06406585305562
STARLINK-1356,45564,53.0555,0.0001407,15.06409085,546.2093212372547,548.1581064861348,1 45564U 20025AK  25302.30673573  .00002426  00000+0  18164-3 0  9995,2 45564  53.0555 316.4191 0001407  89.8480 270.2670 15.06409085305564
STARLINK-1357,45565,53.0617,0.0007086,15.31721479,465.8228993232715,475.52903706179404,1 45565U 20025AL  25302.30475595  .00099797  00000+0  31807-2 0  9995,2 45565  53.0617 301.8717 0007086 342.3432  17.7321 15.31721479305771
STARLINK-1361,45567,53.054,0.0001323,15.06409453,546.2663662250343,548.0988057874911,1 45567U 20025AN  25302.32516513  .00002569  00000+0  19125-3 0  9996,2 45567  53.0540 316.3345 0001323  87.3344 272.7796 15.06409453305576
STARLINK-1363,45568,53.0665,0.0001317,15.40484959,443.77845405433436,445.5755832668501,1 45568U 20025AP  25302.58336806  .00014542  00000+0  36242-3 0  9993,2 45568  53.0665 313.2691 0001317  75.5591 190.0551 15.40484959  5784
